{
  "type": "FeatureCollection",
  "features": [
    {
      "type": "Feature",
      "properties": {
        "norad_id": 27954,
        "name": "GALAXY 13 (HORIZONS-1)",
        "group": "intelsat",
        "lat": -0.8194427332514933,
        "lon": 28.371222636518638,
        "alt_km": 35789.951796137204,
        "timestamp": "2025-12-27T05:29:38.861676+00:00",
        "meta_object_name": "GALAXY 13 (HORIZONS-1)",
        "meta_object_id": "2003-044A",
        "meta_epoch": "2025-12-26T11:53:43.073088",
        "meta_mean_motion": 1.00272501,
        "meta_eccentricity": 0.0002299,
        "meta_inclination": 0.9724,
        "meta_ra_of_asc_node": 86.2926,
        "meta_arg_of_pericenter": 187.4398,
        "meta_mean_anomaly": 209.9098,
        "meta_ephemeris_type": 0,
        "meta_classification_type": "U",
        "meta_norad_cat_id": 27954,
        "meta_element_set_no": 999,
        "meta_rev_at_epoch": 4484,
        "meta_bstar": 0,
        "meta_mean_motion_dot": 1.54e-06,
        "meta_mean_motion_ddot": 0,
        "tle_line1": "1 27954U 03044A   25360.49563742  .00000154  00000+0  00000+0 0  9992",
        "tle_line2": "2 27954   0.9724  86.2926 0002299 187.4398 209.9098  1.00272501 44841"
      },
      "geometry": {
        "type": "Point",
        "coordinates": [
          28.371222636518638,
          -0.8194427332514933
        ]
      }
    },
    {
      "type": "Feature",
      "properties": {
        "norad_id": 28358,
        "name": "INTELSAT 10-02",
        "group": "intelsat",
        "lat": 0.018702037686427805,
        "lon": 177.39771162788264,
        "alt_km": 35789.22487547388,
        "timestamp": "2025-12-27T05:29:38.861688+00:00",
        "meta_object_name": "INTELSAT 10-02",
        "meta_object_id": "2004-022A",
        "meta_epoch": "2025-12-26T08:51:38.739168",
        "meta_mean_motion": 1.0027058,
        "meta_eccentricity": 0.0001247,
        "meta_inclination": 0.0178,
        "meta_ra_of_asc_node": 41.2908,
        "meta_arg_of_pericenter": 258.9062,
        "meta_mean_anomaly": 286.8755,
        "meta_ephemeris_type": 0,
        "meta_classification_type": "U",
        "meta_norad_cat_id": 28358,
        "meta_element_set_no": 999,
        "meta_rev_at_epoch": 7882,
        "meta_bstar": 0,
        "meta_mean_motion_dot": 1.1e-07,
        "meta_mean_motion_ddot": 0,
        "tle_line1": "1 28358U 04022A   25360.36919837  .00000011  00000+0  00000+0 0  9996",
        "tle_line2": "2 28358   0.0178  41.2908 0001247 258.9062 286.8755  1.00270580 78823"
      },
      "geometry": {
        "type": "Point",
        "coordinates": [
          177.39771162788264,
          0.018702037686427805
        ]
      }
    },
    {
      "type": "Feature",
      "properties": {
        "norad_id": 28626,
        "name": "XM-3 (RHYTHM)",
        "group": "intelsat",
        "lat": 0.11981581486881476,
        "lon": -136.24720431761023,
        "alt_km": 36166.722980654486,
        "timestamp": "2025-12-27T05:29:38.861700+00:00",
        "meta_object_name": "XM-3 (RHYTHM)",
        "meta_object_id": "2005-008A",
        "meta_epoch": "2025-12-26T20:46:38.726400",
        "meta_mean_motion": 0.98950574,
        "meta_eccentricity": 0.00022841,
        "meta_inclination": 0.2091,
        "meta_ra_of_asc_node": 82.3398,
        "meta_arg_of_pericenter": 271.2821,
        "meta_mean_anomaly": 100.7769,
        "meta_ephemeris_type": 0,
        "meta_classification_type": "U",
        "meta_norad_cat_id": 28626,
        "meta_element_set_no": 999,
        "meta_rev_at_epoch": 4089,
        "meta_bstar": 0,
        "meta_mean_motion_dot": 7.8e-07,
        "meta_mean_motion_ddot": 0,
        "tle_line1": "1 28626U 05008A   25360.86572600  .00000078  00000+0  00000+0 0  9990",
        "tle_line2": "2 28626   0.2091  82.3398 0002284 271.2821 100.7769  0.98950574 40898"
      },
      "geometry": {
        "type": "Point",
        "coordinates": [
          -136.24720431761023,
          0.11981581486881476
        ]
      }
    },
    {
      "type": "Feature",
      "properties": {
        "norad_id": 28659,
        "name": "DIRECTV 8",
        "group": "intelsat",
        "lat": 0.010274702028477653,
        "lon": 59.35354750286566,
        "alt_km": 35795.253828072004,
        "timestamp": "2025-12-27T05:29:38.861713+00:00",
        "meta_object_name": "DIRECTV 8",
        "meta_object_id": "2005-019A",
        "meta_epoch": "2025-12-26T09:14:16.477152",
        "meta_mean_motion": 1.00271765,
        "meta_eccentricity": 0.0003134,
        "meta_inclination": 0.0135,
        "meta_ra_of_asc_node": 57.3028,
        "meta_arg_of_pericenter": 228.1398,
        "meta_mean_anomaly": 189.2168,
        "meta_ephemeris_type": 0,
        "meta_classification_type": "U",
        "meta_norad_cat_id": 28659,
        "meta_element_set_no": 999,
        "meta_rev_at_epoch": 7534,
        "meta_bstar": 0,
        "meta_mean_motion_dot": 2.3e-07,
        "meta_mean_motion_ddot": 0,
        "tle_line1": "1 28659U 05019A   25360.38491293  .00000023  00000+0  00000+0 0  9993",
        "tle_line2": "2 28659   0.0135  57.3028 0003134 228.1398 189.2168  1.00271765 75343"
      },
      "geometry": {
        "type": "Point",
        "coordinates": [
          59.35354750286566,
          0.010274702028477653
        ]
      }
    },
    {
      "type": "Feature",
      "properties": {
        "norad_id": 28702,
        "name": "GALAXY 28 (G-28)",
        "group": "intelsat",
        "lat": 0.8579249901214262,
        "lon": 98.19216564906262,
        "alt_km": 35706.1263377279,
        "timestamp": "2025-12-27T05:29:38.861725+00:00",
        "meta_object_name": "GALAXY 28 (G-28)",
        "meta_object_id": "2005-022A",
        "meta_epoch": "2025-12-26T19:29:48.902784",
        "meta_mean_motion": 1.00599554,
        "meta_eccentricity": 0.00034373,
        "meta_inclination": 2.8558,
        "meta_ra_of_asc_node": 81.118,
        "meta_arg_of_pericenter": 161.1407,
        "meta_mean_anomaly": 65.1225,
        "meta_ephemeris_type": 0,
        "meta_classification_type": "U",
        "meta_norad_cat_id": 28702,
        "meta_element_set_no": 999,
        "meta_rev_at_epoch": 5024,
        "meta_bstar": 0,
        "meta_mean_motion_dot": -2.34e-06,
        "meta_mean_motion_ddot": 0,
        "tle_line1": "1 28702U 05022A   25360.81237156 -.00000234  00000+0  00000+0 0  9995",
        "tle_line2": "2 28702   2.8558  81.1180 0003437 161.1407  65.1225  1.00599554 50245"
      },
      "geometry": {
        "type": "Point",
        "coordinates": [
          98.19216564906262,
          0.8579249901214262
        ]
      }
    },
    {
      "type": "Feature",
      "properties": {
        "norad_id": 29236,
        "name": "GALAXY 16 (G-16)",
        "group": "intelsat",
        "lat": 0.0019858646729151983,
        "lon": 79.3657103785968,
        "alt_km": 35796.98251300199,
        "timestamp": "2025-12-27T05:29:38.861737+00:00",
        "meta_object_name": "GALAXY 16 (G-16)",
        "meta_object_id": "2006-023A",
        "meta_epoch": "2025-12-26T22:50:03.736032",
        "meta_mean_motion": 1.00271352,
        "meta_eccentricity": 0.00026867,
        "meta_inclination": 0.0398,
        "meta_ra_of_asc_node": 205.9574,
        "meta_arg_of_pericenter": 72.116,
        "meta_mean_anomaly": 61.1203,
        "meta_ephemeris_type": 0,
        "meta_classification_type": "U",
        "meta_norad_cat_id": 29236,
        "meta_element_set_no": 999,
        "meta_rev_at_epoch": 7124,
        "meta_bstar": 0,
        "meta_mean_motion_dot": -1.04e-06,
        "meta_mean_motion_ddot": 0,
        "tle_line1": "1 29236U 06023A   25360.95143213 -.00000104  00000+0  00000+0 0  9991",
        "tle_line2": "2 29236   0.0398 205.9574 0002686  72.1160  61.1203  1.00271352 71243"
      },
      "geometry": {
        "type": "Point",
        "coordinates": [
          79.3657103785968,
          0.0019858646729151983
        ]
      }
    },
    {
      "type": "Feature",
      "properties": {
        "norad_id": 29494,
        "name": "DIRECTV 9S",
        "group": "intelsat",
        "lat": -0.18542160989191642,
        "lon": 77.18196257200732,
        "alt_km": 35798.219394839696,
        "timestamp": "2025-12-27T05:29:38.861749+00:00",
        "meta_object_name": "DIRECTV 9S",
        "meta_object_id": "2006-043A",
        "meta_epoch": "2025-12-26T11:22:08.461920",
        "meta_mean_motion": 1.00271472,
        "meta_eccentricity": 0.000309,
        "meta_inclination": 1.9736,
        "meta_ra_of_asc_node": 83.0647,
        "meta_arg_of_pericenter": 197.4585,
        "meta_mean_anomaly": 244.0274,
        "meta_ephemeris_type": 0,
        "meta_classification_type": "U",
        "meta_norad_cat_id": 29494,
        "meta_element_set_no": 999,
        "meta_rev_at_epoch": 4965,
        "meta_bstar": 0,
        "meta_mean_motion_dot": -9.2e-07,
        "meta_mean_motion_ddot": 0,
        "tle_line1": "1 29494U 06043A   25360.47370905 -.00000092  00000+0  00000+0 0  9992",
        "tle_line2": "2 29494   1.9736  83.0647 0003090 197.4585 244.0274  1.00271472 49656"
      },
      "geometry": {
        "type": "Point",
        "coordinates": [
          77.18196257200732,
          -0.18542160989191642
        ]
      }
    }
  ]
}